STARLINK-31745          
1 60329U 24136A   26068.32100976 -.00000039  00000+0  10809-4 0  9990
2 60329  53.1612  77.6970 0001155  83.3957 276.7175 15.30192081 90816
TANSTAAFL-2             
1 62378U 24247B   26067.20753490  .00013897  00000+0  50872-3 0  9998
2 62378  44.9880 125.0934 0003072 298.8909  61.1666 15.28016845 67506
